*******************************************************************************
JPL/HORIZONS             3963 Paradzhanov (1969 TP2)       2023-Sep-04 11:26:31
Rec #:    3963 (+COV) Soln.date: 2023-Aug-23_15:00:53   # obs: 3188 (1969-2023)
 
IAU76/J2000 helio. ecliptic osc. elements (au, days, deg., period=Julian yrs):
 
  EPOCH=  2457728.5 ! 2016-Dec-06.00 (TDB)         Residual RMS= .27557
   EC= .1960795452096765   QR= 1.962070568323443   TP= 2457234.8145468854
   OM= 109.7859613014689   W=  285.703999316809    IN= 3.27552056316013
   A= 2.440627746976765    MA= 127.6151066860193   ADIST= 2.919184925630086
   PER= 3.81294            N= .258494768           ANGMOM= .026352316
   DAN= 2.22852            DDN= 2.47832            L= 35.5143872
   B= -3.1531288           MOID= .97112            TP= 2015-Jul-31.3145468854
 
Asteroid physical parameters (km, seconds, rotational period in hours):
   GM= n.a.                RAD= 2.8895             ROTPER= 68.206
   H= 13.64                G= .150                 B-V= n.a.
                           ALBEDO= .192            STYP= n.a.

ASTEROID comments: 
1: soln ref.= JPL#40, OCC=0
2: source=ORB
*******************************************************************************


*******************************************************************************
Ephemeris / API_USER Mon Sep  4 11:26:31 2023 Pasadena, USA      / Horizons
*******************************************************************************
Target body name: 3963 Paradzhanov (1969 TP2)     {source: JPL#40}
Center body name: Solar System Barycenter (0)     {source: DE441}
Center-site name: BODY CENTER
*******************************************************************************
Start time      : A.D. 2023-Aug-12 00:00:00.0000 TDB
Stop  time      : A.D. 2023-Aug-13 00:00:00.0000 TDB
Step-size       : 2880 minutes
*******************************************************************************
Center geodetic : 0.0, 0.0, 0.0                   {E-lon(deg),Lat(deg),Alt(km)}
Center cylindric: 0.0, 0.0, 0.0                   {E-lon(deg),Dxy(km),Dz(km)}
Center radii    : (undefined)
Small perturbers: Yes                             {source: SB441-N16}
Output units    : KM-S
Calendar mode   : Mixed Julian/Gregorian
Output type     : GEOMETRIC cartesian states
Output format   : 2 (position and velocity)
Reference frame : Ecliptic of J2000.0
*******************************************************************************
Initial IAU76/J2000 heliocentric ecliptic osculating elements (au, days, deg.):
  EPOCH=  2457728.5 ! 2016-Dec-06.00 (TDB)         Residual RMS= .27557        
   EC= .1960795452096765   QR= 1.962070568323443   TP= 2457234.8145468854      
   OM= 109.7859613014689   W=  285.703999316809    IN= 3.27552056316013        
  Equivalent ICRF heliocentric cartesian coordinates (au, au/d):
   X=-2.776836665431459E+00  Y= 1.376143715282452E-02  Z= 1.672831044863587E-01
  VX=-1.584836556982621E-03 VY=-8.757883673437352E-03 VZ=-3.504878278811953E-03
Asteroid physical parameters (km, seconds, rotational period in hours):        
   GM= n.a.                RAD= 2.8895             ROTPER= 68.206              
   H= 13.64                G= .150                 B-V= n.a.                   
                           ALBEDO= .192            STYP= n.a.                  
*******************************************************************************
JDTDB
   X     Y     Z
   VX    VY    VZ
*******************************************************************************
$$SOE
2460168.500000000 = A.D. 2023-Aug-12 00:00:00.0000 TDB 
 X =-1.021460846254760E+07 Y = 3.152817225011157E+08 Z =-5.566105137707248E+06
 VX=-2.164721317076878E+01 VY= 2.584429355876190E+00 VZ= 1.117338282386496E+00
$$EOE
*******************************************************************************
 
TIME

  Barycentric Dynamical Time ("TDB" or T_eph) output was requested. This
continuous coordinate time is equivalent to the relativistic proper time
of a clock at rest in a reference frame co-moving with the solar system
barycenter but outside the system's gravity well. It is the independent
variable in the solar system relativistic equations of motion.

  TDB runs at a uniform rate of one SI second per second and is independent
of irregularities in Earth's rotation.
 
CALENDAR SYSTEM

  Mixed calendar mode was active such that calendar dates after AD 1582-Oct-15
(if any) are in the modern Gregorian system. Dates prior to 1582-Oct-5 (if any)
are in the Julian calendar system, which is automatically extended for dates
prior to its adoption on 45-Jan-1 BC.  The Julian calendar is useful for
matching historical dates. The Gregorian calendar more accurately corresponds
to the Earth's orbital motion and seasons. A "Gregorian-only" calendar mode is
available if such physical events are the primary interest.

REFERENCE FRAME AND COORDINATES

  Ecliptic at the standard reference epoch

    Reference epoch: J2000.0
    X-Y plane: adopted Earth orbital plane at the reference epoch
               Note: IAU76 obliquity of 84381.448 arcseconds wrt ICRF X-Y plane
    X-axis   : ICRF
    Z-axis   : perpendicular to the X-Y plane in the directional (+ or -) sense
               of Earth's north pole at the reference epoch.

  Symbol meaning:

    JDTDB    Julian Day Number, Barycentric Dynamical Time
      X      X-component of position vector (km)
      Y      Y-component of position vector (km)
      Z      Z-component of position vector (km)
      VX     X-component of velocity vector (km/sec)                           
      VY     Y-component of velocity vector (km/sec)                           
      VZ     Z-component of velocity vector (km/sec)                           

ABERRATIONS AND CORRECTIONS

 Geometric state vectors have NO corrections or aberrations applied.

Computations by ...

    Solar System Dynamics Group, Horizons On-Line Ephemeris System
    4800 Oak Grove Drive, Jet Propulsion Laboratory
    Pasadena, CA  91109   USA

    General site: https://ssd.jpl.nasa.gov/
    Mailing list: https://ssd.jpl.nasa.gov/email_list.html
    System news : https://ssd.jpl.nasa.gov/horizons/news.html
    User Guide  : https://ssd.jpl.nasa.gov/horizons/manual.html
    Connect     : browser        https://ssd.jpl.nasa.gov/horizons/app.html#/x
                  API            https://ssd-api.jpl.nasa.gov/doc/horizons.html
                  command-line   telnet ssd.jpl.nasa.gov 6775
                  e-mail/batch   https://ssd.jpl.nasa.gov/ftp/ssd/hrzn_batch.txt
                  scripts        https://ssd.jpl.nasa.gov/ftp/ssd/SCRIPTS
    Author      : Jon.D.Giorgini@jpl.nasa.gov
*******************************************************************************
